SL-3 R/B                
1 19046U 88032B   23028.57535153  .00003013  00000+0  21487-3 0  9991
2 19046  97.4075  22.8678 0035504 187.4955 172.5746 15.04791338880451
SL-16 R/B               
1 19120U 88039B   23028.21396381 -.00000063  00000+0 -68275-5 0  9992
2 19120  71.0163 310.9801 0024308 281.6883  78.1514 14.19285142797116
COSMOS 1953             
1 19210U 88050A   23028.56843747  .00003723  00000+0  23508-3 0  9998
2 19210  82.5205 201.6177 0019135 107.9125 252.4192 15.08644048865481
SL-8 R/B                
1 19257U 88053B   23028.51263486  .00000310  00000+0  11162-3 0  9995
2 19257  74.0476  44.6319 0019644 150.6310 325.4631 14.37716595813241
COSMOS 1975             
1 19573U 88093A   23028.44097220  .00006034  00000+0  39332-3 0  9991
2 19573  82.5221 158.0576 0012951 145.6800 214.5267 15.07671644847165
SL-14 R/B               
1 19574U 88093B   23028.50401494  .00000592  00000+0  68501-4 0  9995
2 19574  82.5311  26.8374 0021134 188.1563 289.6521 14.83675669832451
SL-16 R/B               
1 19650U 88102B   23028.41400427 -.00000108  00000+0 -30492-4 0  9999
2 19650  71.0006  21.7491 0016579 296.3717  63.5704 14.15863290766041
INTERCOSMOS 24          
1 20261U 89080A   23028.30838804  .00000505  00000+0  14296-3 0  9999
2 20261  82.6042 122.1401 1201013  44.0178 325.0447 12.56705656523893
SL-14 R/B               
1 20262U 89080C   23028.49364021  .00000473  00000+0  14432-3 0  9991
2 20262  82.5953 182.1100 1235181 259.2997  86.6976 12.49174924518215
DELTA 2 R/B(1)          
1 20303U 89085B   23028.52235919  .00031361  00000+0  59892-3 0  9998
2 20303  35.6363  88.6156 0064159  90.8537 269.9548 15.44862415815150
DELTA 1 R/B             
1 20323U 89089B   23028.54006328  .00000397  00000+0  11086-3 0  9994
2 20323  97.0643  38.8239 0072879 105.2013 255.7258 14.48669472731128
ARIANE 40 R/B           
1 20443U 90005H   23028.19032714  .00000346  00000+0  12790-3 0  9993
2 20443  98.4576  97.9495 0010584  20.1336 340.0267 14.38363944729342
DELTA 2 R/B(1)          
1 20453U 90008B   23028.34288981  .00015571  00000+0  76778-3 0  9995
2 20453  35.6236   5.7475 0251905  24.0915 337.1356 14.93556198753499
COSMOS 2058             
1 20465U 90010A   23028.53727129  .00002412  00000+0  19336-3 0  9991
2 20465  82.4867  73.5971 0014122 213.8603 146.1720 14.99644900771359
SL-14 R/B               
1 20466U 90010B   23028.58512056  .00000439  00000+0  52568-4 0  9990
2 20466  82.5010 252.7757 0021928  79.9822 280.3865 14.81708413760147
SL-14 R/B               
1 20511U 90018B   23028.55989100  .00000593  00000+0  74604-4 0  9990
2 20511  82.5221 203.4555 0016342 221.7229 200.5483 14.80351982754397
HST                     
1 20580U 90037B   23028.59643531  .00004338  00000+0  23716-3 0  9994
2 20580  28.4700 115.8496 0002035 316.6346 192.5886 15.11782213600300
SL-16 R/B               
1 20625U 90046B   23028.56500936  .00000052  00000+0  51546-4 0  9994
2 20625  70.9984 163.3912 0016204 235.7385 124.2203 14.14719807687697
COSMOS 2084             
1 20663U 90055A   23028.57698360  .00002969  00000+0  25106-3 0  9997
2 20663  62.7915 216.3874 0131858  72.4930 289.0524 14.93908050765918
SL-6 R/B(2)             
1 20666U 90055D   23028.52237890  .00002535  00000+0  21581-3 0  9994
2 20666  62.7841 130.4810 0131523  94.1056 267.5083 14.94138977767876
SL-8 R/B                
1 20775U 90078B   23028.40219270  .00011583  00000+0  51962-3 0  9998
2 20775  82.9241 155.2480 0533098 102.2261 263.9141 14.44700941642930
SL-8 R/B                
1 21088U 91006B   23028.27668414  .00000083  00000+0  68077-4 0  9990
2 21088  82.9432 295.2783 0022286 341.2224 133.6965 13.77239016607637
OKEAN-3                 
1 21397U 91039A   23028.40071235  .00002785  00000+0  25513-3 0  9991
2 21397  82.5231 348.3500 0016235 206.0557 153.9848 14.94498061694766
COSMOS 2151             
1 21422U 91042A   23028.53088550  .00001740  00000+0  16389-3 0  9997
2 21422  82.4992  93.2222 0012358 281.4065  78.5767 14.93235382693268
SL-14 R/B               
1 21423U 91042B   23028.58780322  .00000523  00000+0  65841-4 0  9995
2 21423  82.4931 204.0839 0017881  14.3233 345.8484 14.80093739684927
ERS-1                   
1 21574U 91050A   23028.52096110  .00000373  00000+0  13778-3 0  9994
2 21574  98.7272   5.4432 0032381 332.4563  27.4906 14.38014229652361
ARIANE 40 R/B           
1 21610U 91050F   23028.21731954  .00000415  00000+0  14191-3 0  9990
2 21610  98.3558  98.0674 0002130 266.7397  93.3548 14.41212751655208
INTERCOSMOS 25          
1 21819U 91086A   23028.51924540  .00002018  00000+0  39993-3 0  9996
2 21819  82.6078 273.8360 1511838  35.4201 333.8382 12.06389618359365
SL-8 R/B                
1 21876U 92008B   23028.50311285  .00000141  00000+0  12937-3 0  9993
2 21876  82.9258  32.5357 0036145  68.4276  42.6124 13.75729678553183
SL-8 R/B                
1 21938U 92020B   23028.20607661  .00000095  00000+0  83408-4 0  9999
2 21938  82.9297 277.7135 0028119 228.3195 245.8575 13.75321301544909
COSMOS 2219             
1 22219U 92076A   23028.24997378  .00000271  00000+0  16816-3 0  9998
2 22219  71.0578 233.0610 0017254 141.7386 218.4964 14.13721183557743
SL-16 R/B               
1 22220U 92076B   23028.55590522  .00000076  00000+0  61914-4 0  9997
2 22220  71.0003  60.9690 0012027  16.3675  94.3556 14.16531454560929
COSMOS 2221             
1 22236U 92080A   23028.56466614  .00001750  00000+0  18273-3 0  9993
2 22236  82.5068 280.7133 0017420  34.4005 325.8336 14.89068948611320
SL-16 R/B               
1 22285U 92093B   23028.59128561  .00000295  00000+0  17649-3 0  9999
2 22285  71.0198 228.6370 0006354 249.4684 110.5758 14.15118905552419
COSMOS 2228             
1 22286U 92094A   23028.56767029  .00001658  00000+0  17150-3 0  9997
2 22286  82.5176 238.0663 0021244 143.4299 216.8375 14.89343825606522
SL-16 R/B               
1 22566U 93016B   23028.53337849  .00000336  00000+0  19797-3 0  9994
2 22566  71.0075  80.8904 0012518 255.3673 104.6062 14.15032016541439
COSMOS 2242             
1 22626U 93024A   23028.51257998  .00001589  00000+0  16520-3 0  9996
2 22626  82.5198 266.6678 0019244 143.4336 216.8200 14.89160087610895
SL-16 R/B               
1 22803U 93059B   23028.05881125  .00000198  00000+0  12243-3 0  9998
2 22803  70.9891 247.4271 0015983 148.8790 211.3284 14.16900471518515
ARIANE 40 R/B           
1 22830U 93061H   23028.15207735  .00000255  00000+0  11217-3 0  9995
2 22830  98.6360  95.1530 0011474  43.3994 316.8091 14.31660566531411
COSMOS 2278             
1 23087U 94023A   23028.44887281  .00000052  00000+0  52487-4 0  9991
2 23087  71.0551  31.4247 0010848 313.2169  46.8046 14.13918796484179
SL-16 R/B               
1 23088U 94023B   23028.23538810 -.00000230  00000+0 -94792-4 0  9995
2 23088  71.0005 297.0295 0005429 243.3774 116.6792 14.14735555485346
SL-16 R/B               
1 23343U 94074B   23028.14375762  .00000606  00000+0  92533-4 0  9996
2 23343  97.8626  80.8520 0005853 319.3084  54.2492 14.77229721519336
SL-16 R/B               
1 23405U 94077B   23028.58647878 -.00000029  00000+0  94964-5 0  9997
2 23405  70.9806 222.0869 0000322 114.0289 246.0868 14.15281892455477
ERS-2                   
1 23560U 95021A   23028.39266068  .00024449  00000+0  80614-3 0  9992
2 23560  98.5086 330.4228 0005240 123.8790 236.2947 15.31442772487678
ARIANE 40+ R/B          
1 23561U 95021B   23028.19293458  .00000355  00000+0  13136-3 0  9999
2 23561  98.5944  91.0523 0005991 301.4071 125.0469 14.38286692455794
SL-16 R/B               
1 23705U 95058B   23028.46509656 -.00000253  00000+0 -10583-3 0  9991
2 23705  71.0219  45.1455 0010688  42.6422 317.5528 14.15201791407087
SL-16 R/B               
1 24298U 96051B   23028.52171799  .00000089  00000+0  74325-4 0  9993
2 24298  70.8265  55.9117 0013998   4.0668 356.0563 14.12478335361216
ORBVIEW 2 (SEASTAR)     
1 24883U 97037A   23028.35246614  .00000458  00000+0  18075-3 0  9997
2 24883  98.7037 157.8127 0002732 150.1212 210.0129 14.33889872345536
SL-16 R/B               
1 25400U 98043G   23028.45233447  .00000110  00000+0  65131-4 0  9993
2 25400  98.6949 327.3301 0010964  75.7828 284.4568 14.25560477277075
SL-16 R/B               
1 25407U 98045B   23028.46011611  .00000159  00000+0  10487-3 0  9996
2 25407  71.0107  50.4330 0009201 306.6979  53.3298 14.15886082266257
ISS (ZARYA)             
1 25544U 98067A   23028.72027634  .00020486  00000+0  36261-3 0  9996
2 25544  51.6439 299.3407 0004924 287.8284  99.0033 15.50257295380165
CZ-4B R/B               
1 25732U 99025C   23028.59485162  .00000056  00000+0  48928-4 0  9994
2 25732  98.8256  73.9090 0037349   5.4706 157.4474 14.17775486227154
OKEAN-O                 
1 25860U 99039A   23028.56667207  .00000681  00000+0  10358-3 0  9999
2 25860  98.1108  75.0284 0001736  79.1613 280.9793 14.77192582266480
SL-16 R/B               
1 25861U 99039B   23028.57342586  .00000662  00000+0  96777-4 0  9990
2 25861  98.1572  64.0480 0014864 333.2803  26.7640 14.79060681268770
DELTA 2 R/B             
1 25876U 99041E   23028.48040038  .00002725  00000+0  49711-3 0  9993
2 25876  51.7659 138.0782 0527075 250.9791 103.3345 14.05613272202869
HELIOS 1B               
1 25977U 99064A   23028.57166563  .00000832  00000+0  10933-3 0  9993
2 25977  98.3062 236.7535 0002092 114.5630 245.5801 14.83072870516641
TERRA                   
1 25994U 99068A   23028.50786208  .00000584  00000+0  13409-3 0  9998
2 25994  98.1126 100.2586 0002533 124.2632 292.5109 14.59003559229296
SL-16 R/B               
1 26070U 00006B   23028.25226798 -.00000198  00000+0 -76930-4 0  9995
2 26070  71.0040 326.7901 0014284 115.3398 244.9206 14.15519065187725
TITAN 4B R/B            
1 26474U 00047B   23028.37122644  .00002844  00000+0  24399-3 0  9995
2 26474  67.9956 325.1509 0057881 230.5359 129.0656 14.97773557222110
